GLOBALSTAR M035         
1 25851U 99037A   24356.76518896 -.00000045  00000+0  71379-3 0  9998
2 25851  51.9955  90.6314 0013980  58.5927  85.2974 11.04535446 76659
GLOBALSTAR M032         
1 25852U 99037B   24356.84581298 -.00000065  00000+0  45554-4 0  9993
2 25852  51.9966 287.8847 0010204 230.8706 129.1187 11.19055100114937
GLOBALSTAR M051         
1 25853U 99037C   24356.66633288 -.00000061  00000+0  26246-3 0  9993
2 25853  51.9785 109.1373 0000800 193.8273 166.2516 11.42199758112104
GLOBALSTAR M030         
1 25854U 99037D   24356.86071130 -.00000070  00000+0  11486-3 0  9998
2 25854  51.9890 286.0517 0004189  84.4257 275.7038 11.55100808129552
GLOBALSTAR M048         
1 25872U 99041A   24356.40565670 -.00000059  00000+0  29645-3 0  9993
2 25872  51.9394  37.9278 0013340 235.2147 245.9899 11.33852569104811
GLOBALSTAR M026         
1 25873U 99041B   24356.88572696 -.00000003  00000+0  22402-2 0  9994
2 25873  51.9973 210.1885 0001352   8.8228 120.5949 11.06825091128852
GLOBALSTAR M043         
1 25874U 99041C   24356.87743514 -.00000053  00000+0  43832-3 0  9999
2 25874  51.9377 137.3853 0013018  14.3477 155.9777 11.25688868102905
GLOBALSTAR M028         
1 25875U 99041D   24356.40119809 -.00000018  00000+0  53803-3 0  9993
2 25875  51.9644   3.1889 0063466  45.4881 315.1143 12.50572842167932
